[
  {
    "street": "Rosenheimer Str. 30",
    "zip": 81669,
    "city": "München"
  },
  {
    "street": "St.-Martin-Straße 57",
    "zip": 81669,
    "city": "München"
  },
  {
    "street": "Schwanthalerstraße 31",
    "zip": 80336,
    "city": "München"
  },
  {
    "street": "Implerstraße 9a",
    "zip": 81371,
    "city": "München"
  },
  {
    "street": "Rundfunkplatz 4",
    "zip": 80335,
    "city": "München"
  },
  {
    "street": "Lerchenauer Str. 240",
    "zip": 80935,
    "city": "München"
  },
  {
    "street": "Hermine-von-Parish-Straße 11",
    "zip": 81245,
    "city": "München"
  },
  {
    "street": "Oskar-Maria-Graf-Ring 14",
    "zip": 81737,
    "city": "München"
  },
  {
    "street": "Zielstattstraße 73",
    "zip": 81379,
    "city": "München"
  },
  {
    "street": "Berg-am-Laim-Straße 107",
    "zip": 81673,
    "city": "München"
  },
  {
    "street": "Orleanspl. 2",
    "zip": 81667,
    "city": "München"
  },
  {
    "street": "Frankfurter Ring 19",
    "zip": 80807,
    "city": "München"
  },
  {
    "street": "Albert-Schweitzer-Straße 78",
    "zip": 81735,
    "city": "München"
  },
  {
    "street": "Georg-Reismüller-Straße 16",
    "zip": 80999,
    "city": "München"
  },
  {
    "street": "Maximilian-Kolbe-Allee 1",
    "zip": 81739,
    "city": "München"
  },
  {
    "street": "Pilgersheimer Str. 38",
    "zip": 81543,
    "city": "München"
  },
  {
    "street": "Friedenheimer Brücke 23",
    "zip": 80639,
    "city": "München"
  },
  {
    "street": "Landsberger Str. 378",
    "zip": 80687,
    "city": "München"
  },
  {
    "street": "Theresienhöhe 12",
    "zip": 80339,
    "city": "München"
  },
  {
    "street": "Richard-Strauss-Straße 80+82",
    "zip": 81679,
    "city": "München"
  },
  {
    "street": "Baierbrunner Str. 75",
    "zip": 81379,
    "city": "München"
  },
  {
    "street": "Großhaderner Str. 44",
    "zip": 81375,
    "city": "München"
  },
  {
    "street": "Hermann-Weinhauser-Straße 90",
    "zip": 81673,
    "city": "München"
  },
  {
    "street": "Landsberger Str. 388",
    "zip": 80687,
    "city": "München"
  },
  {
    "street": "Bognerhofweg 5",
    "zip": 81825,
    "city": "München"
  },
  {
    "street": "Schleißheimer Str. 506",
    "zip": 80933,
    "city": "München"
  },
  {
    "street": "Dachauer Str. 507",
    "zip": 80993,
    "city": "München"
  },
  {
    "street": "Pelkovenstraße 143-147",
    "zip": 80992,
    "city": "München"
  },
  {
    "street": "Freisinger Landstraße 64",
    "zip": 80939,
    "city": "München"
  },
  {
    "street": "Ungererstraße 175",
    "zip": 80805,
    "city": "München"
  },
  {
    "street": "Max-Bill-Straße 8",
    "zip": 80807,
    "city": "München"
  },
  {
    "street": "Meglingerstraße 33",
    "zip": 81477,
    "city": "München"
  }
]
